ordinal{string},comment{string},originator{string},norad_cat_id{string},object_name{string},object_type{string},classification_type{string},intldes{string},epoch{timestamp},epoch_microseconds{integer},mean_motion{decimal},eccentricity{decimal},inclination{decimal},ra_of_asc_node{decimal},arg_of_pericenter{decimal},mean_anomaly{decimal},ephemeris_type{string},element_set_no{string},rev_at_epoch{integer},bstar{decimal},mean_motion_dot{decimal},mean_motion_ddot{string},file{string},tle_line0{string},tle_line1{string},tle_line2{string},object_id{string},object_number{string},semimajor_axis{decimal},period{decimal},apogee{decimal},perigee{decimal}
1,GENERATED VIA SPACETRACK.ORG API,JSPOC,6217,OPS 8180 (STP RADSAT),PAYLOAD,U,72076B,2019-02-21T21:19:33Z,108960,14.6662619599999999,0.00110730000000000008,98.6640000000000015,222.695999999999998,89.962299999999999,270.284800000000018,0,999,44675,1.34480000000000007e-05,1.99999999999999991e-07,0,2414564,0 OPS 8180 (STP RADSAT),1  6217U 72076B   19052.88857765 +.00000020 +00000-0 +13448-4 0  9995,2  6217 098.6640 222.6960 0011073 089.9623 270.2848 14.66626196446751,1972-076B,6217,7049.99600000000009,98.1839999999999975,679.66700000000003,664.053999999999974
1,GENERATED VIA SPACETRACK.ORG API,JSPOC,42778,MAX VALIER SAT,PAYLOAD,U,17036P,2019-02-21T21:19:34Z,168224,15.2177726700000004,0.0010796,97.3706999999999994,113.043700000000001,274.57850000000002,85.4218000000000046,0,999,9247,3.93369999999999996e-05,8.24000000000000073e-06,0,2414564,0 MAX VALIER SAT,1 42778U 17036P   19052.88858991 +.00000824 +00000-0 +39337-4 0  9991,2 42778 097.3707 113.0437 0010796 274.5785 085.4218 15.21777267092478,2017-036P,42778,6878.61599999999999,94.6260000000000048,507.906999999999982,493.055000000000007
1,GENERATED VIA SPACETRACK.ORG API,JSPOC,22210,EKRAN 20,PAYLOAD,U,92074A,2019-02-21T21:19:42Z,564576,1.0021881800000001,0.000208600000000000002,14.9542999999999999,6.2488999999999999,0.158299999999999996,175.312600000000003,0,999,9637,0,-6.89999999999999958e-07,0,2414296,0 EKRAN 20,1 22210U 92074A   19052.88868709 -.00000069  00000-0  00000+0 0  9995,2 22210  14.9543   6.2489 0002086   0.1583 175.3126  1.00218818 96376,1992-074A,22210,42179.5869999999995,1436.85500000000002,35810.25,35792.6529999999984
1,GENERATED VIA SPACETRACK.ORG API,JSPOC,27783,GALEX,PAYLOAD,U,03017A,2019-02-21T21:19:43Z,216896,14.6213634700000004,0.000365599999999999996,28.9980000000000011,291.276400000000024,344.245900000000006,15.8013999999999992,0,999,84546,1.20780000000000002e-05,1.68999999999999991e-06,0,2414564,0 GALEX,1 27783U 03017A   19052.88869464 +.00000169 +00000-0 +12078-4 0  9996,2 27783 028.9980 291.2764 0003656 344.2459 015.8014 14.62136347845460,2003-017A,27783,7064.42100000000028,98.4860000000000042,688.869000000000028,683.702999999999975
1,GENERATED VIA SPACETRACK.ORG API,JSPOC,10776,COSMOS 1000,PAYLOAD,U,78034A,2019-02-21T21:19:46Z,773984,13.7534197700000007,0.00354309999999999998,82.9458000000000055,169.243899999999996,47.3248999999999995,73.0437000000000012,0,999,5221,3.17959999999999985e-05,4.5999999999999999e-07,0,2414180,0 COSMOS 1000,1 10776U 78034A   19052.88873581  .00000046  00000-0  31796-4 0  9998,2 10776  82.9458 169.2439 0035431  47.3249  73.0437 13.75341977 52219,1978-034A,10776,7358.59100000000035,104.700999999999993,1006.52800000000002,954.384000000000015
1,GENERATED VIA SPACETRACK.ORG API,JSPOC,43043,AEROCUBE 7C,PAYLOAD,U,17071G,2019-02-21T21:19:46Z,350624,15.4040133299999997,0.000554800000000000041,51.6375999999999991,263.652100000000019,95.4650000000000034,264.696799999999996,0,999,6804,7.40840000000000042e-05,2.63899999999999997e-05,0,2414564,0 AEROCUBE 7C,1 43043U 17071G   19052.88873091 +.00002639 +00000-0 +74084-4 0  9998,2 43043 051.6376 263.6521 0005548 095.4650 264.6968 15.40401333068043,2017-071G,43043,6823.0600000000004,93.4819999999999993,448.711000000000013,441.139999999999986
1,GENERATED VIA SPACETRACK.ORG API,JSPOC,11298,COSMOS 1083,PAYLOAD,U,79024C,2019-02-21T21:19:56Z,544096,12.5257044799999999,0.00144340000000000006,74.0331000000000046,193.743799999999993,18.742799999999999,97.4831999999999965,0,999,82625,-7.96059999999999964e-05,-2.80000000000000019e-07,0,2414564,0 COSMOS 1083,1 11298U 79024C   19052.88884889 -.00000028 +00000-0 -79606-4 0  9995,2 11298 074.0331 193.7438 0014434 018.7428 097.4832 12.52570448826256,1979-024C,11298,7831.89800000000014,114.962999999999994,1465.06799999999998,1442.45900000000006
1,GENERATED VIA SPACETRACK.ORG API,JSPOC,43621,REMDEB-NET,PAYLOAD,U,98067PM,2019-02-21T21:20:27Z,372480,15.9448925300000006,0.000519700000000000001,51.6355999999999966,198.23429999999999,298.49939999999998,61.5782000000000025,0,999,2477,0.00162429999999999996,0.00627234000000000038,0.00017316,2414267,0 REMDEB-NET,1 43621U 98067PM  19052.88920570  .00627234  17316-3  16243-2 0  9995,2 43621  51.6356 198.2343 0005197 298.4994  61.5782 15.94489253 24770,1998-067PM,43621,6667.8739999999998,90.311000000000007,293.204999999999984,286.274000000000001
1,GENERATED VIA SPACETRACK.ORG API,JSPOC,42777,COMPASS 2,PAYLOAD,U,17036N,2019-02-21T21:20:46Z,2048,15.2249593599999997,0.00110270000000000008,97.370599999999996,113.311700000000002,271.764900000000011,88.2323999999999984,0,999,9249,6.80539999999999959e-05,1.50899999999999995e-05,0,2414170,0 COMPASS 2,1 42777U 17036N   19052.88942132  .00001509  00000-0  68054-4 0  9990,2 42777  97.3706 113.3117 0011027 271.7649  88.2324 15.22495936 92492,2017-036N,42777,6876.45100000000002,94.5810000000000031,505.899000000000001,490.73399999999998
1,GENERATED VIA SPACETRACK.ORG API,JSPOC,22036,COSMOS 2199,PAYLOAD,U,92042C,2019-02-21T21:21:01Z,431360,12.6097536899999998,0.00104379999999999989,82.6021999999999963,176.823299999999989,251.862400000000008,229.127499999999998,0,999,22457,0.000104190000000000004,2.89999999999999976e-07,0,2414564,0 COSMOS 2199,1 22036U 92042C   19052.88959990 +.00000029 +00000-0 +10419-3 0  9993,2 22036 082.6022 176.8233 0010438 251.8624 229.1275 12.60975369224575,1992-042C,22036,7797.05799999999999,114.197000000000003,1427.06099999999992,1410.78400000000011
1,GENERATED VIA SPACETRACK.ORG API,JSPOC,25885,GLOBALSTAR M054,PAYLOAD,U,99043C,2019-02-21T21:21:20Z,910240,11.3917379099999998,0.000454399999999999986,52.0172999999999988,353.571900000000028,134.457699999999988,265.132999999999981,0,999,85638,0.00257740000000000009,2.99999999999999986e-07,0,2414564,0 GLOBALSTAR M054,1 25885U 99043C   19052.88982535 +.00000030 +00000-0 +25774-2 0  9998,2 25885 052.0173 353.5719 0004544 134.4577 265.1330 11.39173791856381,1999-043C,25885,8343.3760000000002,126.406999999999996,1969.03199999999993,1961.45000000000005
1,GENERATED VIA SPACETRACK.ORG API,JSPOC,21304,COSMOS 2148,PAYLOAD,U,91033F,2019-02-21T21:21:21Z,758688,12.6590807099999996,0.00220069999999999988,82.5748999999999995,187.870699999999999,287.12700000000001,192.715800000000002,0,999,28297,2.66530000000000004e-05,1.60000000000000003e-07,0,2414564,0 COSMOS 2148,1 21304U 91033F   19052.88983517 +.00000016 +00000-0 +26653-4 0  9995,2 21304 082.5749 187.8707 0022007 287.1270 192.7158 12.65908071282973,1991-033F,21304,7776.78999999999996,113.751999999999995,1415.76900000000001,1381.54099999999994
1,GENERATED VIA SPACETRACK.ORG API,JSPOC,16909,JAS 1 (FUJI 1),PAYLOAD,U,86061B,2019-02-21T21:21:44Z,950176,12.4446885700000003,0.0011199999999999999,50.0150999999999968,88.9789999999999992,202.971499999999992,213.050600000000003,0,999,47934,5.59959999999999972e-05,-8.89999999999999949e-07,0,2414564,0 JAS 1 (FUJI 1),1 16909U 86061B   19052.89010359 -.00000089 +00000-0 +55996-4 0  9994,2 16909 050.0151 088.9790 0011200 202.9715 213.0506 12.44468857479343,1986-061B,16909,7865.85199999999986,115.712000000000003,1496.52700000000004,1478.9079999999999
1,GENERATED VIA SPACETRACK.ORG API,JSPOC,37192,GLOBALSTAR M075,PAYLOAD,U,10054E,2019-02-21T21:21:45Z,377856,12.6226304500000008,1.02000000000000006e-05,51.9969999999999999,6.76240000000000041,223.055900000000008,154.448299999999989,0,999,38499,4.71820000000000033e-05,-9.5000000000000001e-07,0,2414181,0 GLOBALSTAR M075,1 37192U 10054E   19052.89010854 -.00000095  00000-0  47182-4 0  9995,2 37192  51.9970   6.7624 0000102 223.0559 154.4483 12.62263045384992,2010-054E,37192,7791.75399999999991,114.079999999999998,1413.69900000000007,1413.53999999999996
1,GENERATED VIA SPACETRACK.ORG API,JSPOC,42783,DIAMOND RED,PAYLOAD,U,17036U,2019-02-21T21:21:46Z,387008,15.2194853099999996,0.00105919999999999994,97.3676999999999992,113.008700000000005,282.380200000000002,77.6248999999999967,0,999,9248,4.27239999999999996e-05,9.05999999999999965e-06,0,2414564,0 DIAMOND RED,1 42783U 17036U   19052.89012022 +.00000906 +00000-0 +42724-4 0  9990,2 42783 097.3677 113.0087 0010592 282.3802 077.6249 15.21948531092484,2017-036U,42783,6878.10000000000036,94.6149999999999949,507.25,492.680000000000007
1,GENERATED VIA SPACETRACK.ORG API,JSPOC,12978,COSMOS 1323,PAYLOAD,U,81116D,2019-02-21T21:22:10Z,119360,12.2917334199999999,0.00895310000000000029,73.9812000000000012,199.967800000000011,117.082800000000006,356.800700000000006,0,999,67091,-0.000127410000000000002,-2.99999999999999986e-07,0,2414175,0 COSMOS 1323,1 12978U 81116D   19052.89039490 -.00000030  00000-0 -12741-3 0  9996,2 12978  73.9812 199.9678 0089531 117.0828 356.8007 12.29173342670917,1981-116D,12978,7930.97199999999975,117.150999999999996,1623.84300000000007,1481.82999999999993
1,GENERATED VIA SPACETRACK.ORG API,JSPOC,25941,SACI 1,PAYLOAD,U,99057B,2019-02-21T21:22:15Z,283488,14.5184956500000002,0.000904199999999999969,98.5163000000000011,345.554599999999994,147.97890000000001,212.195699999999988,0,999,2463,2.45929999999999998e-05,5.19999999999999998e-07,0,2414564,0 SACI 1,1 25941U 99057B   19052.89045467 +.00000052 +00000-0 +24593-4 0  9995,2 25941 098.5163 345.5546 0009042 147.9789 212.1957 14.51849565024637,1999-057B,25941,7097.7510000000002,99.1830000000000069,726.033000000000015,713.197999999999979
